SENTINEL-6              
1 46984U 20086A   24131.52096670 -.00000057  00000+0  18817-4 0  9994
2 46984  66.0411 289.5017 0007768 270.5848  89.4277 12.80930825162122
